{
  "type": "FeatureCollection",
  "features": [
    {
      "type": "Feature",
      "properties": {
        "name": "Perímetro da Propriedade",
        "descricao_original": "FAZENDA SANTA TEREZINHA - MS-5002803-A6236A45F49245C5863036576F6658C9",
        "area": "Área: 396.3253 ha"
      },
      "geometry": {
        "type": "Polygon",
        "coordinates": [
          [
            [
              -56.84588361,
              -21.590417780677
            ],
            [
              -56.8454677527,
              -21.5917907264771
            ],
            [
              -56.8457801686,
              -21.5920699262771
            ],
            [
              -56.8244650402,
              -21.6034392105774
            ],
            [
              -56.8242972119,
              -21.6035287506775
            ],
            [
              -56.82582917,
              -21.6039688906775
            ],
            [
              -56.82798667,
              -21.6042675006775
            ],
            [
              -56.83065278,
              -21.6049419406775
            ],
            [
              -56.83191833,
              -21.6051363906775
            ],
            [
              -56.83247444,
              -21.6054755606775
            ],
            [
              -56.83450167,
              -21.6055636106775
            ],
            [
              -56.83626694,
              -21.6063944406776
            ],
            [
              -56.83820833,
              -21.6079677806776
            ],
            [
              -56.84265694,
              -21.6103369406777
            ],
            [
              -56.84535056,
              -21.6107852806777
            ],
            [
              -56.84694,
              -21.6125177806778
            ],
            [
              -56.84908056,
              -21.6125233306777
            ],
            [
              -56.85130639,
              -21.6116663906777
            ],
            [
              -56.85368694,
              -21.6111350006777
            ],
            [
              -56.85506833,
              -21.6115986106778
            ],
            [
              -56.8584533505,
              -21.6078868960776
            ],
            [
              -56.8485251424,
              -21.5948331777772
            ],
            [
              -56.84964333,
              -21.5948975006771
            ],
            [
              -56.84588361,
              -21.590417780677
            ]
          ]
        ]
      }
    }
  ]
}